DUPLEX                  
1 66906U 98067XS  26076.93265565  .00024045  00000+0  33549-3 0  9990
2 66906  51.6300  28.2024 0002916 147.7236 212.3935 15.56752750 16410
ISS OBJECT XT           
1 66907U 98067XT  26077.10831299  .00144711  00000+0  10639-2 0  9991
2 66907  51.6256  22.6028 0005010 136.0050 224.1347 15.72107218 16505
ISS OBJECT XU           
1 66908U 98067XU  26077.10578143  .00150765  00000+0  11000-2 0  9997
2 66908  51.6254  22.5822 0005228 136.7142 223.4268 15.72262943 16506
SILVERSAT               
1 66909U 98067XV  26077.08947402  .00188918  00000+0  11693-2 0  9992
2 66909  51.6243  21.7188 0005600 137.5324 222.6110 15.75954146 16510
ISS OBJECT XW           
1 66910U 98067XW  26077.04385713  .00126852  00000+0  97350-3 0  9995
2 66910  51.6248  22.9144 0005598 137.0995 223.0441 15.71148756 16494
ISS OBJECT XX           
1 66911U 98067XX  26077.06683133  .00252305  00000+0  12796-2 0  9998
2 66911  51.6212  20.7915 0007243 141.9689 218.1825 15.80205228 16513
ISS OBJECT XY           
1 66912U 98067XY  26077.01299966  .00078591  00000+0  77195-3 0  9999
2 66912  51.6278  24.9814 0003628 139.1687 220.9580 15.65332059 16458
KNACKSAT-2              
1 67683U 98067XZ  26077.29040373  .00031110  00000+0  50261-3 0  9992
2 67683  51.6316  29.0899 0009677 216.1335 143.9002 15.52537179  6124
GXIBA-1                 
1 67684U 98067YA  26077.11883881  .00064260  00000+0  91268-3 0  9997
2 67684  51.6318  29.4450 0011823 205.4232 154.6179 15.55718972  6104
CORAL                   
1 67685U 98067YB  26077.15503373  .00035685  00000+0  56583-3 0  9997
2 67685  51.6324  29.6861 0011587 212.5477 147.4800 15.52965300  6104
ISS OBJECT YC           
1 67686U 98067YC  26077.08177038  .00042990  00000+0  66325-3 0  9997
2 67686  51.6325  29.9492 0008542 181.6034 178.4931 15.53669122  6092
LEOPARD                 
1 67687U 98067YD  26077.28699325  .00033363  00000+0  53459-3 0  9996
2 67687  51.6320  29.0693 0008223 185.7311 174.3586 15.52744330  6041
ISS OBJECT YE           
1 67688U 98067YE  26077.15016866  .00039840  00000+0  62263-3 0  9995
2 67688  51.6321  29.6558 0008334 182.6297 177.4651 15.53349847  6021
CREW DRAGON 12          
1 67796U 26031A   26077.16145852  .00007208  00000+0  14196-3 0  9991
2 67796  51.6338  30.4771 0006242 203.4545 156.6159 15.48351952557566
